ONEWEB-0350             
1 49214U 21083AE  24214.20711188  .00000440  00000+0  11688-2 0  9998
2 49214  87.8904  96.5545 0001825  91.3294 268.8044 13.13471952142315
ONEWEB-0351             
1 49215U 21083AF  24213.96325955  .00000163  00000+0  36883-3 0  9991
2 49215  87.9179  50.7575 0000882  74.2626 285.8604 13.20772808146325
ONEWEB-0352             
1 49216U 21083AG  24213.73097921  .00000222  00000+0  57401-3 0  9991
2 49216  87.8908  96.6815 0001319  75.8538 284.2738 13.13468554141043
ONEWEB-0354             
1 49217U 21083AH  24213.60986309  .00000043  00000+0  73780-4 0  9995
2 49217  87.9182  50.8145 0001747  97.8111 262.3220 13.20773396146312
ONEWEB-0355             
1 49218U 21083AJ  24214.21820872  .00000203  00000+0  51990-3 0  9992
2 49218  87.8908  96.5836 0001696  79.5782 280.5538 13.13468187142283
ONEWEB-0357             
1 49219U 21083AK  24214.06125009  .00000095  00000+0  20154-3 0  9993
2 49219  87.9178  50.7413 0001612  89.0084 271.1234 13.20773121147678
ONEWEB-0332             
1 49279U 21090A   24214.15856476 -.00000135  00000+0 -39847-3 0  9992
2 49279  87.8927  65.9899 0001732  73.1851 286.9468 13.14505213137580
ONEWEB-0347             
1 49280U 21090B   24213.82451626  .00000070  00000+0  13965-3 0  9994
2 49280  87.9180  50.7887 0001848  70.6242 289.5091 13.20770937140575
